CHUANGXIN 16A (CX-16A)  
1 53586U 22102A   26068.83297444  .00003128  00000+0  20134-3 0  9993
2 53586  28.9941 256.1289 0005063  43.7318 316.3682 15.05552649194538
STARLINK-35053          
1 65609U 25207T   26068.75038213  .00006485  00000+0  45329-3 0  9991
2 65609  97.6027 138.7711 0000268 225.1605 134.9600 15.05647822 28119
